{
    "links": {
        "self": "http://www.neowsapp.com/rest/v1/neo/3836412?api_key=iIulBulltgU6a56xZRHN4H3l9WmuAYTsLGpBGhQ2"
    },
    "id": "3836412",
    "neo_reference_id": "3836412",
    "name": "(2018 WF2)",
    "designation": "2018 WF2",
    "nasa_jpl_url": "http://ssd.jpl.nasa.gov/sbdb.cgi?sstr=3836412",
    "absolute_magnitude_h": 28.4,
    "estimated_diameter": {
        "kilometers": {
            "estimated_diameter_min": 0.0055533491,
            "estimated_diameter_max": 0.0124176661
        },
        "meters": {
            "estimated_diameter_min": 5.5533491158,
            "estimated_diameter_max": 12.4176661257
        },
        "miles": {
            "estimated_diameter_min": 0.0034506901,
            "estimated_diameter_max": 0.0077159776
        },
        "feet": {
            "estimated_diameter_min": 18.2196499131,
            "estimated_diameter_max": 40.740375732
        }
    },
    "is_potentially_hazardous_asteroid": false,
    "close_approach_data": [
        {
            "close_approach_date": "2018-12-01",
            "close_approach_date_full": "2018-Dec-01 12:15",
            "epoch_date_close_approach": 1543666500000,
            "relative_velocity": {
                "kilometers_per_second": "11.4260332453",
                "kilometers_per_hour": "41133.7196832042",
                "miles_per_hour": "25558.8937664887"
            },
            "miss_distance": {
                "astronomical": "0.0071035749",
                "lunar": "2.7632906361",
                "kilometers": "1062679.674425463",
                "miles": "660318.5303108694"
            },
            "orbiting_body": "Earth"
        },
        {
            "close_approach_date": "2018-12-01",
            "close_approach_date_full": "2018-Dec-01 18:22",
            "epoch_date_close_approach": 1543688520000,
            "relative_velocity": {
                "kilometers_per_second": "10.7884747292",
                "kilometers_per_hour": "38838.509025228",
                "miles_per_hour": "24132.7391218146"
            },
            "miss_distance": {
                "astronomical": "0.0059188533",
                "lunar": "2.3024339337",
                "kilometers": "885447.846522471",
                "miles": "550191.7790972598"
            },
            "orbiting_body": "Moon"
        },
        {
            "close_approach_date": "2020-08-30",
            "close_approach_date_full": "2020-Aug-30 03:41",
            "epoch_date_close_approach": 1598758860000,
            "relative_velocity": {
                "kilometers_per_second": "2.8267082017",
                "kilometers_per_hour": "10176.149526072",
                "miles_per_hour": "6323.0635763529"
            },
            "miss_distance": {
                "astronomical": "1.7267317602",
                "lunar": "671.6986547178",
                "kilometers": "258315393.387270774",
                "miles": "160509742.5151897212"
            },
            "orbiting_body": "Juptr"
        }
    ],
    "orbital_data": {
        "orbit_id": "1",
        "orbit_determination_date": "2018-11-30 20:42:31",
        "first_observation_date": "2018-11-29",
        "last_observation_date": "2018-11-30",
        "data_arc_in_days": 1,
        "observations_used": 15,
        "orbit_uncertainty": "7",
        "minimum_orbit_intersection": ".00481907",
        "jupiter_tisserand_invariant": "3.456",
        "epoch_osculation": "2459000.5",
        "eccentricity": ".5861135203257887",
        "semi_major_axis": "2.15625294880154",
        "inclination": "1.479634656434015",
        "ascending_node_longitude": "59.63111738724954",
        "orbital_period": "1156.506255992914",
        "perihelion_distance": ".8924439422666068",
        "perihelion_argument": "52.73923106670189",
        "aphelion_distance": "3.420061955336473",
        "perihelion_time": "2458485.708768678993",
        "mean_anomaly": "160.2454308528167",
        "mean_motion": ".3112823628359221",
        "equinox": "J2000",
        "orbit_class": {
            "orbit_class_type": "APO",
            "orbit_class_description": "Near-Earth asteroid orbits which cross the Earth’s orbit similar to that of 1862 Apollo",
            "orbit_class_range": "a (semi-major axis) > 1.0 AU; q (perihelion) < 1.017 AU"
        }
    },
    "is_sentry_object": false
}